41794,SKY MUSTER 2 (NBN1B),2016,1436.1,6405.0,+,0.01,Active,1,GSO,French Guiana,Australia,Commercial,Communications,Ariane,1 41794U 16060B   24020.57688067 -.00000240  00000+0  00000+0 0  9998,2 41794   0.0140   8.5029 0001713 284.6937 178.7115  1.00270934 26719,1.00270934,0.0001713,GEO
41836,HIMAWARI-9,2016,1436.15,3500.0,+,0.04,Active,1,GSO,Japan,Japan,Government,Earth Observation,H2A,1 41836U 16064A   24020.58406907 -.00000271  00000+0  00000+0 0  9995,2 41836   0.0293 269.4329 0000912  11.5124 189.5023  1.00273477 26398,1.00273477,9.12e-05,GEO
41838,SHIJIAN-17 (SJ-17),2016,1436.09,3800.0,+,3.5,Active,1,GSO,PRC,China,Government,Technology Development,Long March,1 41838U 16065A   24020.75066791 -.00000046  00000+0  00000+0 0  9990,2 41838   3.5071  83.1589 0003899 275.0429 198.8608  1.00272645 26425,1.00272645,0.0003899,GSO
41866,GOES 16,2016,1436.11,5192.0,+,0.08,Active,1,GSO,USA,USA,Government,Earth Observation,Atlas,1 41866U 16071A   24020.44599587 -.00000243  00000+0  00000+0 0  9997,2 41866   0.0758 251.5923 0001225  72.6635 240.3909  1.00270919 26298,1.00270919,0.0001225,GEO
41869,TIANLIAN 1-04,2016,1436.05,2200.0,+,0.07,Active,1,GSO,PRC,China,Government,Communications,Long March,1 41869U 16072A   24020.65302053  .00000035  00000+0  00000+0 0  9992,2 41869   0.0710  93.1548 0024139  60.1107  18.1998  1.00268226 26508,1.00268226,0.0024139,GEO
41879,WGS F8 (USA 272),2016,1436.12,5990.0,+,0.01,Active,1,GSO,USA,USA,Military,Communications,Delta,1 41879U 16075A   24020.62542703 -.00000199  00000+0  00000+0 0  9993,2 41879   0.0097  67.6900 0000443 242.0076 184.7413  1.00270600 26010,1.002706,4.43e-05,GEO
41882,FENGYUN 4A,2016,1436.08,5300.0,+,0.08,Active,1,GSO,PRC,China,Government,Earth Observation,Long March,1 41882U 16077A   24020.51907244 -.00000326  00000+0  00000+0 0  9994,2 41882   0.0852  63.4851 0005087 340.8932   6.4360  1.00272576 26115,1.00272576,0.0005087,GEO
41893,ECHOSTAR 19,2016,1436.11,6764.0,+,0.01,Active,1,GSO,USA,USA,Commercial,Communications,Atlas,1 41893U 16079A   24020.30928808 -.00000134  00000+0  00000+0 0  9991,2 41893   0.0134  76.8799 0001593 223.0850 193.4422  1.00270907 25906,1.00270907,0.0001593,GEO
41903,JCSAT-110A (JCSAT-15),2016,1436.12,3400.0,+,0.02,Active,1,GSO,French Guiana,Japan,Commercial,Communications,Ariane,1 41903U 16082A   24019.05021941 -.00000346  00000+0  00000+0 0  9994,2 41903   0.0188  53.5950 0001498 234.3029 318.1680  1.00270284 25938,1.00270284,0.0001498,GEO
41904,STAR ONE D1,2016,1436.09,6433.0,+,0.02,Active,1,GSO,French Guiana,Brazil,Commercial,Communications,Ariane,1 41904U 16082B   24020.31676865 -.00000206  00000+0  00000+0 0  9992,2 41904   0.0135 301.6031 0002134   1.5285 206.0959  1.00271979 25963,1.00271979,0.0002134,GEO
41911,TJS-2,2017,1436.12,-1.0,+,0.19,Active,1,GSO,PRC,China,Government,Technology Development,Long March,1 41911U 17001A   24020.47419125 -.00000001  00000+0  00000+0 0  9996,2 41911   0.1935  77.6241 0003517 225.3099  53.5557  1.00270356 25910,1.00270356,0.0003517,GEO
41937,SBIRS GEO-4 (USA 273),2017,1436.11,4500.0,+,1.48,Active,1,GSO,USA,USA,Military,Earth Observation,Atlas,1 41937U 17004A   24020.61828660 -.00000137  00000+0  00000+0 0  9991,2 41937   1.4825 346.3620 0002657 308.0389 310.8449  1.00271137 25795,1.00271137,0.0002657,GSO
41942,HISPASAT 36W-1,2017,1436.09,3220.0,+,0.01,Active,1,GSO,French Guiana,Spain,Commercial,Communications,Soyuz,1 41942U 17006A   24020.23896869 -.00000240  00000+0  00000+0 0  9998,2 41942   0.0124 309.0971 0000922 353.4977 226.5361  1.00269724 25417,1.00269724,9.22e-05,GEO
41944,TELKOM 3S,2017,1436.14,3550.0,+,0.02,Active,1,GSO,French Guiana,Indonesia,Commercial,Communications,Ariane,1 41944U 17007A   24020.54841043 -.00000359  00000+0  00000+0 0  9990,2 41944   0.0254  49.1197 0002648 245.9026 139.8254  1.00270403 25325,1.00270403,0.0002648,GEO
41945,INTELSAT 32E (IS-32E),2017,1436.03,6000.0,+,0.01,Active,1,GSO,French Guiana,INTELSAT,Commercial,Communications,Ariane,1 41945U 17007B   24020.23748931 -.00000264  00000+0  00000+0 0  9994,2 41945   0.0163  71.9859 0000486 146.0700 303.3544  1.00274942 25413,1.00274942,4.86e-05,GEO
42070,ECHOSTAR 23,2017,1436.12,5600.0,+,0.02,Active,1,GSO,USA,USA,Commercial,Communications,Falcon,1 42070U 17014A   24020.30255102 -.00000052  00000+0  00000+0 0  9998,2 42070   0.0166  68.1350 0002191 230.2916 179.7327  1.00269252 25119,1.00269252,0.0002191,GEO
42432,SES-10,2017,1436.14,5271.0,+,0.02,Active,1,GSO,USA,SES,Commercial,Communications,Falcon,1 42432U 17017A   24020.15871348 -.00000268  00000+0  00000+0 0  9991,2 42432   0.0109  46.9920 0003091 242.2750 179.9929  1.00278604 24934,1.00278604,0.0003091,GEO
42662,CHINASAT 16 (SJ-13),2017,1436.07,4600.0,+,0.06,Active,1,GSO,PRC,China,Government,Technology Development,Long March,1 42662U 17018A   24019.83843556 -.00000348  00000+0  00000+0 0  9999,2 42662   0.0566  89.9897 0005995 197.7974 243.2663  1.00273926 24924,1.00273926,0.0005995,GEO
42691,KOREASAT 7,2017,1436.13,3680.0,+,0.03,Active,1,GSO,French Guiana,South Korea,Commercial,Communications,Ariane,1 42691U 17023A   24019.91109955 -.00000357  00000+0  00000+0 0  9994,2 42691   0.0244   9.7201 0000471 242.8367 310.1081  1.00269356 24560,1.00269356,4.71e-05,GEO
42692,SGDC,2017,1436.12,5735.0,+,0.02,Active,1,GSO,French Guiana,Brazil,Commercial/Military,Communications,Ariane,1 42692U 17023B   24019.87798176 -.00000244  00000+0  00000+0 0  9994,2 42692   0.0113 342.8671 0002784 326.1709  50.9142  1.00269845 24596,1.00269845,0.0002784,GEO
42698,INMARSAT 5-F4,2017,1436.09,6086.0,+,0.02,Active,1,GSO,USA,INMARSAT,Commercial,Communications,Falcon,1 42698U 17025A   24019.89077160  .00000080  00000+0  00000+0 0  9994,2 42698   0.0180  66.7284 0000422 255.2073 173.9996  1.00272004 24449,1.00272004,4.22e-05,GEO
42740,VIASAT-2,2017,1436.1,6418.0,+,0.03,Active,1,GSO,French Guiana,USA,Commercial,Communications,Ariane,1 42740U 17029A   24019.87411488 -.00000260  00000+0  00000+0 0  9990,2 42740   0.0193 296.4428 0001429  63.7718   3.2878  1.00271697 24372,1.00271697,0.0001429,GEO
42741,EUTELSAT 172B,2017,1436.1,3600.0,+,0.07,Active,1,GSO,French Guiana,EUTELSAT,Commercial,Communications,Ariane,1 42741U 17029B   24020.06539226 -.00000001  00000+0  00000+0 0  9998,2 42741   0.0703 155.4053 0000115 153.5070   5.5404  1.00272047 24918,1.00272047,1.15e-05,GEO
42747,GSAT-19,2017,1436.1,3136.0,+,0.07,Active,1,GSO,India,India,Government,Communications,GSLV,1 42747U 17031A   24020.47036226  .00000129  00000+0  00000+0 0  9994,2 42747   0.0731  98.6107 0001581 237.9653 359.9268  1.00272461 24324,1.00272461,0.0001581,GEO
42749,ECHOSTAR 21,2017,1436.11,6900.0,+,2.8,Active,1,GSO,Kazakhstan,USA,Commercial,Communications,Proton,1 42749U 17032A   24020.39134558  .00000073  00000+0  00000+0 0  9993,2 42749   2.8027 316.7613 0002602 338.6602 334.9646  1.00271602 24293,1.00271602,0.0002602,GSO
42814,HELLAS-SAT 3,2017,1436.09,5780.0,+,0.06,Active,1,GSO,French Guiana,Greece,Commercial,Communications,Ariane,1 42814U 17040A   24020.46870882  .00000156  00000+0  00000+0 0  9992,2 42814   0.0554  13.0621 0003786 320.9767 352.9936  1.00272956 23998,1.00272956,0.0003786,GEO
42815,GSAT-17,2017,1436.1,3477.0,+,0.04,Active,1,GSO,French Guiana,India,Government,Communications,Ariane,1 42815U 17040B   24020.54899116 -.00000254  00000+0  00000+0 0  9993,2 42815   0.0414 256.9749 0006069  11.8421 141.7329  1.00271207 23979,1.00271207,0.0006069,GEO
