OBJECT_NAME,OBJECT_ID,EPOCH,MEAN_MOTION,ECCENTRICITY,INCLINATION,RA_OF_ASC_NODE,ARG_OF_PERICENTER,MEAN_ANOMALY,EPHEMERIS_TYPE,CLASSIFICATION_TYPE,NORAD_CAT_ID,ELEMENT_SET_NO,REV_AT_EPOCH,BSTAR,MEAN_MOTION_DOT,MEAN_MOTION_DDOT
SKY MUSTER 2 (NBN1B),2016-060B,2024-01-20T13:50:42.489888,1.00270934,.0001713,0.0140,8.5029,284.6937,178.7115,0,U,41794,999,2671,0,-.24E-5,0
HIMAWARI-9,2016-064A,2024-01-20T14:01:03.567648,1.00273477,.0000912,0.0293,269.4329,11.5124,189.5023,0,U,41836,999,2639,0,-.271E-5,0
SHIJIAN-17 (SJ-17),2016-065A,2024-01-20T18:00:57.707424,1.00272645,.0003899,3.5071,83.1589,275.0429,198.8608,0,U,41838,999,2642,0,-.46E-6,0
GOES 16,2016-071A,2024-01-20T10:42:14.043168,1.00270919,.0001225,0.0758,251.5923,72.6635,240.3909,0,U,41866,999,2629,0,-.243E-5,0
TIANLIAN 1-04,2016-072A,2024-01-20T15:40:20.973792,1.00268226,.0024139,0.0710,93.1548,60.1107,18.1998,0,U,41869,999,2650,0,.35E-6,0
WGS F8 (USA 272),2016-075A,2024-01-20T15:00:36.895392,1.00270600,.0000443,0.0097,67.6900,242.0076,184.7413,0,U,41879,999,2601,0,-.199E-5,0
FENGYUN 4A,2016-077A,2024-01-20T12:27:27.858816,1.00272576,.0005087,0.0852,63.4851,340.8932,6.4360,0,U,41882,999,2611,0,-.326E-5,0
ECHOSTAR 19,2016-079A,2024-01-20T07:25:22.490112,1.00270907,.0001593,0.0134,76.8799,223.0850,193.4422,0,U,41893,999,2590,0,-.134E-5,0
JCSAT-110A (JCSAT-15),2016-082A,2024-01-19T01:12:18.957024,1.00270284,.0001498,0.0188,53.5950,234.3029,318.1680,0,U,41903,999,2593,0,-.346E-5,0
STAR ONE D1,2016-082B,2024-01-20T07:36:08.811360,1.00271979,.0002134,0.0135,301.6031,1.5285,206.0959,0,U,41904,999,2596,0,-.206E-5,0
TJS-2,2017-001A,2024-01-20T11:22:50.124000,1.00270356,.0003517,0.1935,77.6241,225.3099,53.5557,0,U,41911,999,2591,0,-.1E-7,0
SBIRS GEO-4 (USA 273),2017-004A,2024-01-20T14:50:19.962240,1.00271137,.0002657,1.4825,346.3620,308.0389,310.8449,0,U,41937,999,2579,0,-.137E-5,0
HISPASAT 36W-1,2017-006A,2024-01-20T05:44:06.894816,1.00269724,.0000922,0.0124,309.0971,353.4977,226.5361,0,U,41942,999,2571,0,-.24E-5,0
TELKOM 3S,2017-007A,2024-01-20T13:09:42.661152,1.00270403,.0002648,0.0254,49.1197,245.9026,139.8254,0,U,41944,999,2532,0,-.359E-5,0
INTELSAT 32E (IS-32E),2017-007B,2024-01-20T05:41:59.076384,1.00274942,.0000486,0.0163,71.9859,146.0700,303.3544,0,U,41945,999,2541,0,-.264E-5,0
ECHOSTAR 23,2017-014A,2024-01-20T07:15:40.408128,1.00269252,.0002191,0.0166,68.1350,230.2916,179.7327,0,U,42070,999,2511,0,-.52E-6,0
SES-10,2017-017A,2024-01-20T03:48:32.844672,1.00278604,.0003091,0.0109,46.9920,242.2750,179.9929,0,U,42432,999,2493,0,-.268E-5,0
CHINASAT 16 (SJ-13),2017-018A,2024-01-19T20:07:20.832384,1.00273926,.0005995,0.0566,89.9897,197.7974,243.2663,0,U,42662,999,2492,0,-.348E-5,0
KOREASAT 7,2017-023A,2024-01-19T21:51:59.001120,1.00269356,.0000471,0.0244,9.7201,242.8367,310.1081,0,U,42691,999,2456,0,-.357E-5,0
SGDC,2017-023B,2024-01-19T21:04:17.624064,1.00269845,.0002784,0.0113,342.8671,326.1709,50.9142,0,U,42692,999,2459,0,-.244E-5,0
INMARSAT 5-F4,2017-025A,2024-01-19T21:22:42.666240,1.00272004,.0000422,0.0180,66.7284,255.2073,173.9996,0,U,42698,999,2444,0,.8E-6,0
VIASAT-2,2017-029A,2024-01-19T20:58:43.525632,1.00271697,.0001429,0.0193,296.4428,63.7718,3.2878,0,U,42740,999,2437,0,-.26E-5,0
EUTELSAT 172B,2017-029B,2024-01-20T01:34:09.891264,1.00272047,.0000115,0.0703,155.4053,153.5070,5.5404,0,U,42741,999,2491,0,-.1E-7,0
GSAT-19,2017-031A,2024-01-20T11:17:19.299264,1.00272461,.0001581,0.0731,98.6107,237.9653,359.9268,0,U,42747,999,2432,0,.129E-5,0
ECHOSTAR 21,2017-032A,2024-01-20T09:23:32.258112,1.00271602,.0002602,2.8027,316.7613,338.6602,334.9646,0,U,42749,999,2429,0,.73E-6,0
HELLAS-SAT 3,2017-040A,2024-01-20T11:14:56.442048,1.00272956,.0003786,0.0554,13.0621,320.9767,352.9936,0,U,42814,999,2399,0,.156E-5,0
GSAT-17,2017-040B,2024-01-20T13:10:32.836224,1.00271207,.0006069,0.0414,256.9749,11.8421,141.7329,0,U,42815,999,2397,0,-.254E-5,0
